STARLINK-2054           
1 47664U 21012AW  21129.91667824 -.00983783  00000-0 -44054-1 0  9999
2 47664  53.0541  54.3228 0001333  64.3872 257.0624 15.23557277  1754
STARLINK-2056           
1 47665U 21012AX  21129.91667824 -.00175700  00000-0 -42980-2 0  9999
2 47665  53.0455  53.4711 0006272 274.2535  42.9598 15.40870506  1765
STARLINK-2057           
1 47666U 21012AY  21129.91667824 -.01009755  00000-0 -23370-1 0  9998
2 47666  53.0465  51.2001 0001292  74.9227   2.9012 15.44706937  1773
STARLINK-2058           
1 47667U 21012AZ  21129.91667824 -.00014159  00000-0 -93336-3 0  9993
2 47667  53.0539  73.9765 0002021  68.7568 317.9045 15.06405051  1758
STARLINK-2059           
1 47668U 21012BA  21129.91667824 -.01059980  00000-0 -48690-1 0  9997
2 47668  53.0551  54.3782 0001336  59.0626 241.1399 15.22919998  1759
STARLINK-2060           
1 47669U 21012BB  21129.91667824 -.00017710  00000-0 -12177-3 0  9995
2 47669  53.0483  49.8152 0002598  25.1362 321.1313 15.73237938  1776
STARLINK-2062           
1 47670U 21012BC  21130.16667824 -.00469960  00000-0 -16011-1 0  9993
2 47670  53.0501  55.2804 0004830 273.6023 340.5384 15.31858719 13764
STARLINK-2064           
1 47671U 21012BD  21129.91667824 -.01040784  00000-0 -47261-1 0  9996
2 47671  53.0528  54.3512 0001198  70.0274 240.8810 15.23252219  1757
STARLINK-2065           
1 47672U 21012BE  21130.16667824 -.01064151  00000-0 -11268-1 0  9998
2 47672  53.0460  48.6688 0000985 312.3366 327.5636 15.66287366 13851
STARLINK-2066           
1 47673U 21012BF  21129.83334491 -.01056097  00000-0 -51263-1 0  9991
2 47673  53.0527  54.6985 0001463  68.1981  86.1389 15.21047739  1808
STARLINK-2067           
1 47674U 21012BG  21129.83334491 -.01054687  00000-0 -53174-1 0  9998
2 47674  53.0496  54.7878 0001377  71.4624  31.3277 15.19753029  1802
STARLINK-2078           
1 47675U 21012BH  21130.16667824 -.00472465  00000-0 -16382-1 0  9993
2 47675  53.0515  55.2770 0001427  60.3084 181.9998 15.31332402 13767
STARLINK-2083           
1 47676U 21012BJ  21130.25003472  .00061959  00000-0  44282-3 0  9999
2 47676  53.0482  48.1691 0002073  27.2138  44.3413 15.73184739 13863
STARLINK-2090           
1 47677U 21012BK  21129.83334491  .00022945  00000-0  15544-2 0  9990
2 47677  53.0542  74.3524 0002042  81.2208 273.2077 15.06396792  1788
STARLINK-2091           
1 47678U 21012BL  21129.83334491  .00016679  00000-0  12288-3 0  9991
2 47678  53.0482  50.2397 0001803  28.2057 200.7420 15.73223182  1817
STARLINK-2095           
1 47679U 21012BM  21129.83334491  .00017346  00000-0  11807-2 0  9999
2 47679  53.0613  74.3304 0002067  75.4800 124.1546 15.06394474  1796
STARLINK-2068           
1 47722U 21017A   21129.83334491 -.00016193  00000-0 -11093-3 0  9992
2 47722  53.0463 213.5172 0002399  26.3324  17.2788 15.73239777  1813
STARLINK-2107           
1 47723U 21017B   21130.25003472  .00019557  00000-0  14337-3 0  9992
2 47723  53.0464 211.4505 0002203  35.4383 207.5393 15.73207414 11160
STARLINK-2116           
1 47724U 21017C   21130.25003472  .00020288  00000-0  14845-3 0  9990
2 47724  53.0466 211.4490 0002182  26.7615 216.8745 15.73223317 11167
STARLINK-2125           
1 47725U 21017D   21130.25003472  .00019278  00000-0  14145-3 0  9991
2 47725  53.0462 211.4665 0002019  19.9757 214.7784 15.73197144 11166
STARLINK-2126           
1 47726U 21017E   21130.25003472  .00003801  00000-0  31429-4 0  9992
2 47726  53.0462 211.4601 0002129  39.7305 197.5205 15.73248227 11163
STARLINK-2129           
1 47727U 21017F   21130.25003472 -.00095308  00000-0 -67984-3 0  9992
2 47727  53.0464 211.4464 0002254  38.0772 206.1988 15.73278337 11162
STARLINK-2131           
1 47728U 21017G   21130.25003472 -.00086385  00000-0 -61557-3 0  9998
2 47728  53.0465 211.4533 0002003  37.1433 204.6066 15.73262415 11167
STARLINK-2132           
1 47729U 21017H   21130.25003472  .00018902  00000-0  13875-3 0  9997
2 47729  53.0464 211.4516 0001917  33.0098 209.3527 15.73202799 11166
STARLINK-2140           
1 47730U 21017J   21129.83334491 -.01058613  00000-0 -64830-1 0  9990
2 47730  53.0436 219.4115 0001232  81.3760 251.6645 15.12508166  1803
STARLINK-2141           
1 47731U 21017K   21129.83334491 -.01077554  00000-0 -33422-1 0  9999
2 47731  53.0471 215.6590 0001156  74.1793 296.9085 15.35635836  1809
STARLINK-2142           
1 47732U 21017L   21130.25003472  .00020251  00000-0  14824-3 0  9996
2 47732  53.0463 211.4431 0002031  28.9939 216.5717 15.73214708 11164
STARLINK-2143           
1 47733U 21017M   21129.83334491 -.00013854  00000-0 -91278-3 0  9998
2 47733  53.0531 224.3529 0001393  71.1970   3.3813 15.06408565  1796
STARLINK-2144           
1 47734U 21017N   21129.83334491 -.01076964  00000-0 -33800-1 0  9996
2 47734  53.0461 215.6417 0001139  78.0079 269.9617 15.35268345  1808
STARLINK-2146           
1 47735U 21017P   21130.25003472  .00003872  00000-0  31946-4 0  9994
2 47735  53.0464 211.4406 0001951  24.2780 222.5371 15.73241558 11169
STARLINK-2147           
1 47736U 21017Q   21129.83334491 -.00008527  00000-0 -56313-4 0  9994
2 47736  53.0461 213.5250 0002455  17.1234  22.6053 15.73218471  1817
STARLINK-2148           
1 47737U 21017R   21130.25003472  .00023733  00000-0  17308-3 0  9999
2 47737  53.0466 211.4429 0002043  22.2521 223.9780 15.73189546 11169
STARLINK-2149           
1 47738U 21017S   21129.83334491 -.00552919  00000-0 -71242-2 0  9991
2 47738  53.0473 214.0839 0004960 269.9960 218.1373 15.60181484  1813
STARLINK-2150           
1 47739U 21017T   21129.83334491 -.00002124  00000-0 -12375-3 0  9993
2 47739  53.0531 229.3531 0001326  72.3437  49.6093 15.06392924  1791
STARLINK-2152           
1 47740U 21017U   21129.83334491 -.01075683  00000-0 -34500-1 0  9998
2 47740  53.0459 215.6969 0001161  86.1636 231.9927 15.34589448  1811
STARLINK-2154           
1 47741U 21017V   21129.83334491 -.01079246  00000-0 -31719-1 0  9997
2 47741  53.0481 215.7281 0001346  67.5057  45.7778 15.37299735  1804
STARLINK-2156           
1 47742U 21017W   21130.25003472  .00022348  00000-0  16297-3 0  9992
2 47742  53.0464 211.4556 0002228  29.3980 211.0435 15.73232406 11165
STARLINK-2157           
1 47743U 21017X   21130.16667824 -.00060123  00000-0 -42500-3 0  9991
2 47743  53.0460 211.8777 0008341 354.9762 128.6723 15.73247681 11151
STARLINK-2158           
1 47744U 21017Y   21130.25003472  .00020978  00000-0  15333-3 0  9991
2 47744  53.0466 211.4583 0001908  22.6706 217.1705 15.73224040 11167
STARLINK-2159           
1 47745U 21017Z   21129.83334491 -.01076384  00000-0 -34122-1 0  9992
2 47745  53.0466 215.6565 0001141  83.2356 258.4954 15.34955163  1805
STARLINK-2160           
1 47746U 21017AA  21129.83334491 -.01077240  00000-0 -33616-1 0  9992
2 47746  53.0464 215.6497 0001142  76.6363 282.8967 15.35446524  1805
STARLINK-2161           
1 47747U 21017AB  21129.83334491 -.00088476  00000-0 -63065-3 0  9998
2 47747  53.0461 213.5349 0002891  19.7096  15.6319 15.73261437  1813
STARLINK-2162           
1 47748U 21017AC  21129.83334491 -.00093780  00000-0 -66912-3 0  9997
2 47748  53.0462 213.5333 0002329  17.3879  19.1996 15.73265125  1815
STARLINK-2163           
1 47749U 21017AD  21129.83334491 -.00016212  00000-0 -11105-3 0  9997
2 47749  53.0463 213.5390 0002448  28.4330   5.6257 15.73243149  1819
STARLINK-2164           
1 47750U 21017AE  21130.25003472  .00021595  00000-0  15756-3 0  9993
2 47750  53.0464 211.4590 0002087  40.4108 198.6702 15.73244297 11169
STARLINK-2168           
1 47751U 21017AF  21130.25003472  .00042938  00000-0  47753-3 0  9990
2 47751  53.0528 214.2846 0008402 308.8458 336.2451 15.62432109 11139
STARLINK-2169           
1 47752U 21017AG  21130.25003472 -.00919281  00000-0 -13301-1 0  9997
2 47752  53.0461 211.9082 0001351  56.7569 340.2904 15.57927307 11164
STARLINK-2170           
1 47753U 21017AH  21129.83334491 -.01075249  00000-0 -34912-1 0  9997
2 47753  53.0458 215.7391 0001206  82.0637 212.2126 15.34204454  1803
STARLINK-2171           
1 47754U 21017AJ  21129.83334491 -.01077918  00000-0 -33235-1 0  9990
2 47754  53.0473 215.6706 0001204  66.8563 315.7606 15.35820734  1804
STARLINK-2172           
1 47755U 21017AK  21129.83334491 -.01019312  00000-0 -13930-1 0  9995
2 47755  53.0473 213.8908 0001191  82.0814 150.3591 15.59277855  1805
STARLINK-2174           
1 47756U 21017AL  21129.83334491 -.01078284  00000-0 -33047-1 0  9990
2 47756  53.0474 215.6871 0001221  68.4471 325.5669 15.36007619  1803
STARLINK-2175           
1 47757U 21017AM  21130.25003472 -.00382232  00000-0 -10624-1 0  9997
2 47757  53.0466 215.9721 0001378  52.6132 131.9257 15.37872726 11111
STARLINK-2176           
1 47758U 21017AN  21130.25003472 -.00377699  00000-0 -10509-1 0  9991
2 47758  53.0476 215.9587 0006192 281.0930 252.5772 15.37788191 11110
STARLINK-2177           
1 47759U 21017AP  21130.25003472 -.00407187  00000-0 -11172-1 0  9995
2 47759  53.0468 216.0033 0001066  28.0840 221.7609 15.38371205 11116
STARLINK-2178           
1 47760U 21017AQ  21129.83334491 -.00017119  00000-0 -11334-2 0  9990
2 47760  53.0534 224.3557 0001295  72.0418 182.6107 15.06391845  1786
STARLINK-2179           
1 47761U 21017AR  21129.83334491 -.01079052  00000-0 -32083-1 0  9999
2 47761  53.0482 215.7649 0001310  69.3349  21.2276 15.36943665  1809
STARLINK-2180           
1 47762U 21017AS  21129.83334491 -.00013547  00000-0 -89209-3 0  9990
2 47762  53.0530 229.3523 0001021  80.4739 246.7090 15.06407632  1783
STARLINK-2181           
1 47763U 21017AT  21129.83334491 -.01055817  00000-0 -68471-1 0  9994
2 47763  53.0471 219.4650 0001461  77.2400  91.2784 15.10448346  1792
STARLINK-2182           
1 47764U 21017AU  21130.25003472  .00023567  00000-0  16676-2 0  9990
2 47764  53.0535 227.1909 0000948  79.0571 206.4377 15.04756057 10955
